JINJUSAT-1B             
1 63210U 25052A   26068.66363707  .00019955  00000+0  68430-3 0  9998
2 63210  97.4113 325.4613 0005550  82.1930 277.9941 15.30194857 54866
STARLINK-35524          
1 65914U 25225E   26068.56399353  .00018013  00000+0  61923-3 0  9992
2 65914  53.1572 165.9276 0001103  62.6159 297.4954 15.30178989 24399
