[{"OBJECT_NAME":"JINJUSAT-1B","OBJECT_ID":"2025-052A","EPOCH":"2026-03-09T15:55:38.242848","MEAN_MOTION":15.30194857,"ECCENTRICITY":0.00055504,"INCLINATION":97.4113,"RA_OF_ASC_NODE":325.4613,"ARG_OF_PERICENTER":82.193,"MEAN_ANOMALY":277.9941,"EPHEMERIS_TYPE":0,"CLASSIFICATION_TYPE":"U","NORAD_CAT_ID":63210,"ELEMENT_SET_NO":999,"REV_AT_EPOCH":5486,"BSTAR":0.00068430401,"MEAN_MOTION_DOT":0.00019955,"MEAN_MOTION_DDOT":0},{"OBJECT_NAME":"STARLINK-35524","OBJECT_ID":"2025-225E","EPOCH":"2026-03-09T13:32:09.040992","MEAN_MOTION":15.30178989,"ECCENTRICITY":0.0001103,"INCLINATION":53.1572,"RA_OF_ASC_NODE":165.9276,"ARG_OF_PERICENTER":62.6159,"MEAN_ANOMALY":297.4954,"EPHEMERIS_TYPE":0,"CLASSIFICATION_TYPE":"U","NORAD_CAT_ID":65914,"ELEMENT_SET_NO":999,"REV_AT_EPOCH":2439,"BSTAR":0.00061923,"MEAN_MOTION_DOT":0.00018013,"MEAN_MOTION_DDOT":0}]
